[
  {
    "OBJECT_NAME": "STARLINK-33971",
    "OBJECT_ID": "25098G",
    "EPOCH": "2025-11-11T03:45:24.993792",
    "MEAN_MOTION": 14.98349094,
    "ECCENTRICITY": 0.0002695,
    "INCLINATION": 70.001,
    "RA_OF_ASC_NODE": 213.4683,
    "ARG_OF_PERICENTER": 271.0582,
    "MEAN_ANOMALY": 89.0268,
    "EPHEMERIS_TYPE": 0,
    "CLASSIFICATION_TYPE": "U",
    "NORAD_CAT_ID": 63932,
    "ELEMENT_SET_NO": 999,
    "REV_AT_EPOCH": 2881,
    "BSTAR": 0.00050487,
    "MEAN_MOTION_DOT": 5.939e-05,
    "MEAN_MOTION_DDOT": 0.0,
    "TLE_LINE1": "1 63932U 25098G   25315.15653928  .00005939  00000+0  50487-3 0  9994",
    "TLE_LINE2": "2 63932  70.0010 213.4683 0002695 271.0582  89.0268 14.98349094 28810",
    "COMMENT": "Grouped by shell and plane from TLE"
  },
  {
    "OBJECT_NAME": "STARLINK-33877",
    "OBJECT_ID": "25098H",
    "EPOCH": "2025-11-11T04:15:26.400960",
    "MEAN_MOTION": 14.98346888,
    "ECCENTRICITY": 0.0002194,
    "INCLINATION": 70.0029,
    "RA_OF_ASC_NODE": 213.1261,
    "ARG_OF_PERICENTER": 278.5315,
    "MEAN_ANOMALY": 81.5595,
    "EPHEMERIS_TYPE": 0,
    "CLASSIFICATION_TYPE": "U",
    "NORAD_CAT_ID": 63933,
    "ELEMENT_SET_NO": 999,
    "REV_AT_EPOCH": 2882,
    "BSTAR": 0.0008984700000000001,
    "MEAN_MOTION_DOT": 0.00010648,
    "MEAN_MOTION_DDOT": 0.0,
    "TLE_LINE1": "1 63933U 25098H   25315.17738890  .00010648  00000+0  89847-3 0  9994",
    "TLE_LINE2": "2 63933  70.0029 213.1261 0002194 278.5315  81.5595 14.98346888 28829",
    "COMMENT": "Grouped by shell and plane from TLE"
  },
  {
    "OBJECT_NAME": "STARLINK-33895",
    "OBJECT_ID": "25098J",
    "EPOCH": "2025-11-11T02:51:19.212768",
    "MEAN_MOTION": 14.98348472,
    "ECCENTRICITY": 0.0002372,
    "INCLINATION": 70.0026,
    "RA_OF_ASC_NODE": 213.3333,
    "ARG_OF_PERICENTER": 285.9744,
    "MEAN_ANOMALY": 74.1153,
    "EPHEMERIS_TYPE": 0,
    "CLASSIFICATION_TYPE": "U",
    "NORAD_CAT_ID": 63934,
    "ELEMENT_SET_NO": 999,
    "REV_AT_EPOCH": 2881,
    "BSTAR": 0.00051922,
    "MEAN_MOTION_DOT": 6.11e-05,
    "MEAN_MOTION_DDOT": 0.0,
    "TLE_LINE1": "1 63934U 25098J   25315.11897237  .00006110  00000+0  51922-3 0  9992",
    "TLE_LINE2": "2 63934  70.0026 213.3333 0002372 285.9744  74.1153 14.98348472 28813",
    "COMMENT": "Grouped by shell and plane from TLE"
  },
  {
    "OBJECT_NAME": "STARLINK-34005",
    "OBJECT_ID": "25098K",
    "EPOCH": "2025-11-11T03:51:25.610112",
    "MEAN_MOTION": 14.98350574,
    "ECCENTRICITY": 0.0002251,
    "INCLINATION": 70.0017,
    "RA_OF_ASC_NODE": 213.4749,
    "ARG_OF_PERICENTER": 275.8582,
    "MEAN_ANOMALY": 84.2321,
    "EPHEMERIS_TYPE": 0,
    "CLASSIFICATION_TYPE": "U",
    "NORAD_CAT_ID": 63935,
    "ELEMENT_SET_NO": 999,
    "REV_AT_EPOCH": 2881,
    "BSTAR": 0.00068592,
    "MEAN_MOTION_DOT": 8.105e-05,
    "MEAN_MOTION_DDOT": 0.0,
    "TLE_LINE1": "1 63935U 25098K   25315.16071308  .00008105  00000+0  68592-3 0  9998",
    "TLE_LINE2": "2 63935  70.0017 213.4749 0002251 275.8582  84.2321 14.98350574 28815",
    "COMMENT": "Grouped by shell and plane from TLE"
  },
  {
    "OBJECT_NAME": "STARLINK-34027",
    "OBJECT_ID": "25098L",
    "EPOCH": "2025-11-11T02:27:16.846848",
    "MEAN_MOTION": 14.98348679,
    "ECCENTRICITY": 0.0001857,
    "INCLINATION": 70.0036,
    "RA_OF_ASC_NODE": 213.2706,
    "ARG_OF_PERICENTER": 280.4129,
    "MEAN_ANOMALY": 79.682,
    "EPHEMERIS_TYPE": 0,
    "CLASSIFICATION_TYPE": "U",
    "NORAD_CAT_ID": 63936,
    "ELEMENT_SET_NO": 999,
    "REV_AT_EPOCH": 2879,
    "BSTAR": 0.00066974,
    "MEAN_MOTION_DOT": 7.911e-05,
    "MEAN_MOTION_DDOT": 0.0,
    "TLE_LINE1": "1 63936U 25098L   25315.10227832  .00007911  00000+0  66974-3 0  9994",
    "TLE_LINE2": "2 63936  70.0036 213.2706 0001857 280.4129  79.6820 14.98348679 28790",
    "COMMENT": "Grouped by shell and plane from TLE"
  },
  {
    "OBJECT_NAME": "STARLINK-34035",
    "OBJECT_ID": "25098M",
    "EPOCH": "2025-11-11T03:09:21.591360",
    "MEAN_MOTION": 14.98349675,
    "ECCENTRICITY": 0.000213,
    "INCLINATION": 70.0031,
    "RA_OF_ASC_NODE": 213.3777,
    "ARG_OF_PERICENTER": 299.6507,
    "MEAN_ANOMALY": 60.444,
    "EPHEMERIS_TYPE": 0,
    "CLASSIFICATION_TYPE": "U",
    "NORAD_CAT_ID": 63937,
    "ELEMENT_SET_NO": 999,
    "REV_AT_EPOCH": 2879,
    "BSTAR": 0.00096997,
    "MEAN_MOTION_DOT": 0.00011505,
    "MEAN_MOTION_DDOT": 0.0,
    "TLE_LINE1": "1 63937U 25098M   25315.13149990  .00011505  00000+0  96997-3 0  9998",
    "TLE_LINE2": "2 63937  70.0031 213.3777 0002130 299.6507  60.4440 14.98349675 28795",
    "COMMENT": "Grouped by shell and plane from TLE"
  },
  {
    "OBJECT_NAME": "STARLINK-33988",
    "OBJECT_ID": "25098N",
    "EPOCH": "2025-11-11T03:27:08.816256",
    "MEAN_MOTION": 14.98353438,
    "ECCENTRICITY": 0.0002837,
    "INCLINATION": 70.0013,
    "RA_OF_ASC_NODE": 213.4224,
    "ARG_OF_PERICENTER": 271.6371,
    "MEAN_ANOMALY": 88.4463,
    "EPHEMERIS_TYPE": 0,
    "CLASSIFICATION_TYPE": "U",
    "NORAD_CAT_ID": 63938,
    "ELEMENT_SET_NO": 999,
    "REV_AT_EPOCH": 2879,
    "BSTAR": 0.00095395,
    "MEAN_MOTION_DOT": 0.00011315,
    "MEAN_MOTION_DDOT": 0.0,
    "TLE_LINE1": "1 63938U 25098N   25315.14385204  .00011315  00000+0  95395-3 0  9990",
    "TLE_LINE2": "2 63938  70.0013 213.4224 0002837 271.6371  88.4463 14.98353438 28794",
    "COMMENT": "Grouped by shell and plane from TLE"
  },
  {
    "OBJECT_NAME": "STARLINK-34020",
    "OBJECT_ID": "25098P",
    "EPOCH": "2025-11-11T04:20:49.534368",
    "MEAN_MOTION": 15.00055202,
    "ECCENTRICITY": 0.0011623,
    "INCLINATION": 70.0028,
    "RA_OF_ASC_NODE": 213.1477,
    "ARG_OF_PERICENTER": 8.4437,
    "MEAN_ANOMALY": 351.6916,
    "EPHEMERIS_TYPE": 0,
    "CLASSIFICATION_TYPE": "U",
    "NORAD_CAT_ID": 63939,
    "ELEMENT_SET_NO": 999,
    "REV_AT_EPOCH": 2880,
    "BSTAR": 0.06589300000000001,
    "MEAN_MOTION_DOT": 0.00878481,
    "MEAN_MOTION_DDOT": 0.0,
    "TLE_LINE1": "1 63939U 25098P   25315.18112887  .00878481  00000+0  65893-1 0  9993",
    "TLE_LINE2": "2 63939  70.0028 213.1477 0011623   8.4437 351.6916 15.00055202 28802",
    "COMMENT": "Grouped by shell and plane from TLE"
  },
  {
    "OBJECT_NAME": "STARLINK-34021",
    "OBJECT_ID": "25098Q",
    "EPOCH": "2025-11-11T03:57:26.340480",
    "MEAN_MOTION": 14.98351359,
    "ECCENTRICITY": 0.0002247,
    "INCLINATION": 70.0014,
    "RA_OF_ASC_NODE": 213.4884,
    "ARG_OF_PERICENTER": 280.1231,
    "MEAN_ANOMALY": 79.9674,
    "EPHEMERIS_TYPE": 0,
    "CLASSIFICATION_TYPE": "U",
    "NORAD_CAT_ID": 63940,
    "ELEMENT_SET_NO": 999,
    "REV_AT_EPOCH": 2879,
    "BSTAR": 0.00078454,
    "MEAN_MOTION_DOT": 9.285e-05,
    "MEAN_MOTION_DDOT": 0.0,
    "TLE_LINE1": "1 63940U 25098Q   25315.16488820  .00009285  00000+0  78454-3 0  9993",
    "TLE_LINE2": "2 63940  70.0014 213.4884 0002247 280.1231  79.9674 14.98351359 28794",
    "COMMENT": "Grouped by shell and plane from TLE"
  },
  {
    "OBJECT_NAME": "STARLINK-34004",
    "OBJECT_ID": "25098R",
    "EPOCH": "2025-11-11T02:57:19.957824",
    "MEAN_MOTION": 14.98353029,
    "ECCENTRICITY": 0.0002435,
    "INCLINATION": 70.0009,
    "RA_OF_ASC_NODE": 213.3414,
    "ARG_OF_PERICENTER": 271.1606,
    "MEAN_ANOMALY": 88.9274,
    "EPHEMERIS_TYPE": 0,
    "CLASSIFICATION_TYPE": "U",
    "NORAD_CAT_ID": 63941,
    "ELEMENT_SET_NO": 999,
    "REV_AT_EPOCH": 2879,
    "BSTAR": 0.0011014,
    "MEAN_MOTION_DOT": 0.0001308,
    "MEAN_MOTION_DDOT": 0.0,
    "TLE_LINE1": "1 63941U 25098R   25315.12314766  .00013080  00000+0  11014-2 0  9993",
    "TLE_LINE2": "2 63941  70.0009 213.3414 0002435 271.1606  88.9274 14.98353029 28794",
    "COMMENT": "Grouped by shell and plane from TLE"
  },
  {
    "OBJECT_NAME": "STARLINK-34014",
    "OBJECT_ID": "25098S",
    "EPOCH": "2025-11-11T03:03:06.071040",
    "MEAN_MOTION": 14.98353946,
    "ECCENTRICITY": 0.0002658,
    "INCLINATION": 70.0012,
    "RA_OF_ASC_NODE": 213.3614,
    "ARG_OF_PERICENTER": 270.3837,
    "MEAN_ANOMALY": 89.7018,
    "EPHEMERIS_TYPE": 0,
    "CLASSIFICATION_TYPE": "U",
    "NORAD_CAT_ID": 63942,
    "ELEMENT_SET_NO": 999,
    "REV_AT_EPOCH": 2879,
    "BSTAR": 0.00095372,
    "MEAN_MOTION_DOT": 0.00011312,
    "MEAN_MOTION_DDOT": 0.0,
    "TLE_LINE1": "1 63942U 25098S   25315.12715360  .00011312  00000+0  95372-3 0  9995",
    "TLE_LINE2": "2 63942  70.0012 213.3614 0002658 270.3837  89.7018 14.98353946 28798",
    "COMMENT": "Grouped by shell and plane from TLE"
  },
  {
    "OBJECT_NAME": "STARLINK-33985",
    "OBJECT_ID": "25098T",
    "EPOCH": "2025-11-11T02:39:05.321664",
    "MEAN_MOTION": 14.98346015,
    "ECCENTRICITY": 0.000244,
    "INCLINATION": 70.0002,
    "RA_OF_ASC_NODE": 213.2938,
    "ARG_OF_PERICENTER": 241.5528,
    "MEAN_ANOMALY": 118.5386,
    "EPHEMERIS_TYPE": 0,
    "CLASSIFICATION_TYPE": "U",
    "NORAD_CAT_ID": 63943,
    "ELEMENT_SET_NO": 999,
    "REV_AT_EPOCH": 2879,
    "BSTAR": 0.0014575,
    "MEAN_MOTION_DOT": 0.00017347,
    "MEAN_MOTION_DDOT": 0.0,
    "TLE_LINE1": "1 63943U 25098T   25315.11047826  .00017347  00000+0  14575-2 0  9999",
    "TLE_LINE2": "2 63943  70.0002 213.2938 0002440 241.5528 118.5386 14.98346015 28790",
    "COMMENT": "Grouped by shell and plane from TLE"
  },
  {
    "OBJECT_NAME": "STARLINK-33996",
    "OBJECT_ID": "25098U",
    "EPOCH": "2025-11-11T03:27:23.075712",
    "MEAN_MOTION": 14.98354058,
    "ECCENTRICITY": 0.0002945,
    "INCLINATION": 70.0014,
    "RA_OF_ASC_NODE": 213.4223,
    "ARG_OF_PERICENTER": 271.7853,
    "MEAN_ANOMALY": 88.2968,
    "EPHEMERIS_TYPE": 0,
    "CLASSIFICATION_TYPE": "U",
    "NORAD_CAT_ID": 63944,
    "ELEMENT_SET_NO": 999,
    "REV_AT_EPOCH": 2879,
    "BSTAR": 0.0011083,
    "MEAN_MOTION_DOT": 0.00013164,
    "MEAN_MOTION_DDOT": 0.0,
    "TLE_LINE1": "1 63944U 25098U   25315.14401708  .00013164  00000+0  11083-2 0  9990",
    "TLE_LINE2": "2 63944  70.0014 213.4223 0002945 271.7853  88.2968 14.98354058 28794",
    "COMMENT": "Grouped by shell and plane from TLE"
  }
]